[Satellite]
VERSION=1.1
NAME=IRIDIUM 155
NICKNAME=IRIDIUM 155
TLE1=1 43573U 18061E   22342.44008352  .00000301  00000+0  10048-3 0  9996
TLE2=2 43573  86.3995 234.3820 0001758  86.5524 273.5873 14.34218323228926
STATUS=0
